QZS-1R                  
1 49336U 21096A   23208.72433382 -.00000275  00000+0  00000+0 0  9993
2 49336  35.2716  95.5129 0759065 272.1026 329.9103  1.00243175  6437
